[
  {
    "name": "ONEWEB-0012",
    "noradId": "44057",
    "line1": "1 44057U 19010A   26192.57218622 -.00000007  00000+0 -53108-4 0  9993",
    "line2": "2 44057  87.9079 223.9415 0001661  90.6479 269.4843 13.16593747354775"
  },
  {
    "name": "ONEWEB-0010",
    "noradId": "44058",
    "line1": "1 44058U 19010B   26192.59753738 -.00000098  00000+0 -29054-3 0  9990",
    "line2": "2 44058  87.9083 223.9324 0002366 101.3352 258.8045 13.16592608354820"
  },
  {
    "name": "ONEWEB-0008",
    "noradId": "44059",
    "line1": "1 44059U 19010C   26192.62286498  .00000122  00000+0  28545-3 0  9999",
    "line2": "2 44059  87.9078 223.9228 0002187  87.8601 272.2780 13.16593181354940"
  },
  {
    "name": "ONEWEB-0007",
    "noradId": "44060",
    "line1": "1 44060U 19010D   26192.60133544  .00000024  00000+0  28522-4 0  9999",
    "line2": "2 44060  87.8988 254.3565 0001911 102.6202 257.5142 13.15548180354586"
  },
  {
    "name": "ONEWEB-0006",
    "noradId": "44061",
    "line1": "1 44061U 19010E   26192.68134578  .00000016  00000+0  84258-5 0  9996",
    "line2": "2 44061  87.8996 254.3078 0002255  97.8955 262.2431 13.15550606354644"
  },
  {
    "name": "ONEWEB-0011",
    "noradId": "44062",
    "line1": "1 44062U 19010F   26192.72570902 -.00000040  00000+0 -13979-3 0  9996",
    "line2": "2 44062  87.9000 254.3089 0002273  96.6928 263.4461 13.15549393354648"
  },
  {
    "name": "ONEWEB-0013",
    "noradId": "45131",
    "line1": "1 45131U 20008A   26192.62148431 -.00000680  00000+0 -20121-2 0  9996",
    "line2": "2 45131  87.8493  47.8928 0001075  53.1561 306.9665 13.09457021309264"
  },
  {
    "name": "ONEWEB-0017",
    "noradId": "45132",
    "line1": "1 45132U 20008B   26192.58687565 -.00000589  00000+0 -17226-2 0  9998",
    "line2": "2 45132  87.8817  31.4056 0001982  92.5658 267.5696 13.10376003311145"
  },
  {
    "name": "ONEWEB-0020",
    "noradId": "45133",
    "line1": "1 45133U 20008C   26192.55632762  .00000344  00000+0  95034-3 0  9996",
    "line2": "2 45133  87.8816  31.4111 0001830  85.4519 274.6817 13.10369611311530"
  },
  {
    "name": "ONEWEB-0021",
    "noradId": "45134",
    "line1": "1 45134U 20008D   26192.57157819 -.00000485  00000+0 -14265-2 0  9998",
    "line2": "2 45134  87.8811  31.4226 0001696  90.2338 269.8983 13.10369968311845"
  },
  {
    "name": "ONEWEB-0023",
    "noradId": "45136",
    "line1": "1 45136U 20008F   26192.58260795 -.00000624  00000+0 -18234-2 0  9994",
    "line2": "2 45136  87.8821  31.4043 0001840  82.1354 277.9982 13.10371853311276"
  },
  {
    "name": "ONEWEB-0024",
    "noradId": "45137",
    "line1": "1 45137U 20008G   26192.55476076  .00000419  00000+0  11633-2 0  9999",
    "line2": "2 45137  87.8831  31.4043 0001884  92.6298 267.5045 13.10369466311439"
  },
  {
    "name": "ONEWEB-0025",
    "noradId": "45138",
    "line1": "1 45138U 20008H   26192.55448986  .00000387  00000+0  10723-2 0  9992",
    "line2": "2 45138  87.8828  31.3936 0002216  82.7261 277.4118 13.10369162311766"
  },
  {
    "name": "ONEWEB-0026",
    "noradId": "45139",
    "line1": "1 45139U 20008J   26192.57354024  .00000689  00000+0  19076-2 0  9999",
    "line2": "2 45139  87.8873  16.2107 0002034  92.0830 268.0530 13.11417570314308"
  },
  {
    "name": "ONEWEB-0028",
    "noradId": "45140",
    "line1": "1 45140U 20008K   26192.54894522 -.00000277  00000+0 -81628-3 0  9998",
    "line2": "2 45140  87.8875  16.2235 0001359  79.6856 280.4425 13.11417959311817"
  },
  {
    "name": "ONEWEB-0032",
    "noradId": "45141",
    "line1": "1 45141U 20008L   26192.58870611 -.00000480  00000+0 -14100-2 0  9992",
    "line2": "2 45141  87.8820  31.4078 0001527  72.5945 287.5349 13.10375354311498"
  },
  {
    "name": "ONEWEB-0033",
    "noradId": "45142",
    "line1": "1 45142U 20008M   26192.56310506 -.00000023  00000+0 -10291-3 0  9994",
    "line2": "2 45142  87.8813  31.4188 0002168  97.0500 263.0874 13.10368884311407"
  },
  {
    "name": "ONEWEB-0035",
    "noradId": "45143",
    "line1": "1 45143U 20008N   26192.58361579 -.00000590  00000+0 -17256-2 0  9999",
    "line2": "2 45143  87.8814  31.4081 0001845  90.0704 270.0635 13.10377752311138"
  },
  {
    "name": "ONEWEB-0036",
    "noradId": "45144",
    "line1": "1 45144U 20008P   26192.63766226  .00000434  00000+0  12059-2 0  9995",
    "line2": "2 45144  87.8819  31.4130 0001381  58.1639 301.9622 13.10368461311560"
  },
  {
    "name": "ONEWEB-0038",
    "noradId": "45145",
    "line1": "1 45145U 20008Q   26192.50755449  .00000485  00000+0  13329-2 0  9994",
    "line2": "2 45145  87.8876  16.2363 0001708 148.4619 211.6611 13.11415639313510"
  },
  {
    "name": "ONEWEB-0039",
    "noradId": "45146",
    "line1": "1 45146U 20008R   26192.56650128 -.00000097  00000+0 -31390-3 0  9999",
    "line2": "2 45146  87.8814  31.4089 0001291  74.7490 285.3780 13.10371446311353"
  },
  {
    "name": "ONEWEB-0040",
    "noradId": "45147",
    "line1": "1 45147U 20008S   26192.55970856  .00000158  00000+0  41601-3 0  9994",
    "line2": "2 45147  87.8810  31.4208 0001904  77.2167 282.9173 13.10368731311052"
  },
  {
    "name": "ONEWEB-0043",
    "noradId": "45149",
    "line1": "1 45149U 20008U   26192.56155550  .00000056  00000+0  12527-3 0  9995",
    "line2": "2 45149  87.8821  31.4098 0001369  77.5552 282.5728 13.10372056311371"
  },
  {
    "name": "ONEWEB-0044",
    "noradId": "45150",
    "line1": "1 45150U 20008V   26192.59027157 -.00000378  00000+0 -11182-2 0  9995",
    "line2": "2 45150  87.8828  31.4058 0001784  81.8491 278.2839 13.10377348311674"
  },
  {
    "name": "ONEWEB-0045",
    "noradId": "45151",
    "line1": "1 45151U 20008W   26192.57862722  .00000597  00000+0  16489-2 0  9995",
    "line2": "2 45151  87.8884  16.2033 0001742  93.8865 266.2462 13.11416321313603"
  },
  {
    "name": "ONEWEB-0047",
    "noradId": "45152",
    "line1": "1 45152U 20008X   26192.58331955 -.00000608  00000+0 -17787-2 0  9993",
    "line2": "2 45152  87.8825  31.4063 0001850  94.1004 266.0335 13.10372508311398"
  },
  {
    "name": "ONEWEB-0048",
    "noradId": "45153",
    "line1": "1 45153U 20008Y   26192.57838417 -.00000538  00000+0 -15781-2 0  9992",
    "line2": "2 45153  87.8812  31.4257 0001684  91.1190 269.0130 13.10372056311000"
  },
  {
    "name": "ONEWEB-0049",
    "noradId": "45154",
    "line1": "1 45154U 20008Z   26192.58161602 -.00000593  00000+0 -17352-2 0  9996",
    "line2": "2 45154  87.8815  31.4147 0001966  75.3215 284.8130 13.10372246311227"
  },
  {
    "name": "ONEWEB-0051",
    "noradId": "45155",
    "line1": "1 45155U 20008AA  26192.50063861  .00000613  00000+0  16941-2 0  9991",
    "line2": "2 45155  87.8882  16.2256 0001839  88.8617 271.2722 13.11417747314270"
  },
  {
    "name": "ONEWEB-0052",
    "noradId": "45156",
    "line1": "1 45156U 20008AB  26192.60229848  .00000176  00000+0  46653-3 0  9990",
    "line2": "2 45156  87.8825  31.3980 0001858  73.9939 286.1393 13.10377749311130"
  },
  {
    "name": "ONEWEB-0053",
    "noradId": "45157",
    "line1": "1 45157U 20008AC  26192.55801769  .00000263  00000+0  71611-3 0  9992",
    "line2": "2 45157  87.8812  31.4266 0001555  73.5914 286.5384 13.10369256311103"
  }
]